NORAD_CAT_ID,OBJECT_NAME,OBJECT_TYPE,EPOCH,MEAN_MOTION,ECCENTRICITY,INCLINATION,RA_OF_ASC_NODE,ARG_OF_PERICENTER,MEAN_ANOMALY,BSTAR,MEAN_MOTION_DOT,MEAN_MOTION_DDOT,TLE_LINE0,TLE_LINE1,TLE_LINE2,SEMIMAJOR_AXIS,PERIOD,APOGEE,PERIGEE,DECAYED
54073.0,STARLINK-5146,PAYLOAD,2023-01-15 05:59:49,15.08822292,7.42e-05,53.2176,99.4394,41.3388,318.766,0.00015429,2.168e-05,0.0,0 STARLINK-5146,1 54073U 22136Y   23015.24988356  .00002168  00000-0  15429-3 0  9990,2 54073  53.2176  99.4394 0000742  41.3388 318.7660 15.08822292 13861,6917.935,95.439,540.313,539.286,0.0
54073.0,STARLINK-5146,PAYLOAD,2023-01-15 12:21:22,15.088290400000002,9.06e-05,53.2187,98.2492,84.9204,275.1892,0.00020829,3.028e-05,0.0,0 STARLINK-5146,1 54073U 22136Y   23015.51484091  .00003028  00000-0  20829-3 0  9993,2 54073  53.2187  98.2492 0000906  84.9204 275.1892 15.08829040 13424,6917.914000000001,95.438,540.406,539.1519999999999,0.0
54073.0,STARLINK-5146,PAYLOAD,2023-01-15 21:53:40,15.08844119,0.0001203,53.2164,96.465,88.4424,271.6705,0.00017112,2.437e-05,0.0,0 STARLINK-5146,1 54073U 22136Y   23015.91227587  .00002437  00000-0  17112-3 0  9996,2 54073  53.2164  96.4650 0001203  88.4424 271.6705 15.08844119 13483,6917.868,95.437,540.565,538.901,0.0
54073.0,STARLINK-5146,PAYLOAD,2023-01-16 12:12:07,15.08863111,0.0001267,53.2184,93.7942,104.9614,255.1518,0.00036506,5.53e-05,0.0,0 STARLINK-5146,1 54073U 22136Y   23016.50842543  .00005530  00000-0  36506-3 0  9992,2 54073  53.2184  93.7942 0001267 104.9614 255.1518 15.08863111 14050,6917.81,95.436,540.5509999999999,538.798,0.0
54073.0,STARLINK-5146,PAYLOAD,2023-01-16 21:44:27,15.08836167,0.0001341999999999,53.2162,92.0055,99.5414,260.573,-7.8841e-05,-1.542e-05,0.0,0 STARLINK-5146,1 54073U 22136Y   23016.90587342 -.00001542  00000-0 -78841-4 0  9999,2 54073  53.2162  92.0055 0001342  99.5414 260.5730 15.08836167 14118,6917.892,95.438,540.685,538.8290000000001,0.0
54073.0,STARLINK-5146,PAYLOAD,2023-01-17 05:41:24,15.08807994,0.0001174,53.2178,90.5183,117.1618,242.9494,-0.00058628,-9.598e-05,0.0,0 STARLINK-5146,1 54073U 22136Y   23017.23708774 -.00009598  00000-0 -58628-3 0  9999,2 54073  53.2178  90.5183 0001174 117.1618 242.9494 15.08807994 14168,6917.978,95.44,540.655,539.031,0.0
54073.0,STARLINK-5146,PAYLOAD,2023-01-17 13:38:20,15.08817599,0.0001018,53.217,89.0307,124.2679,235.841,-0.00029504,-4.977e-05,0.0,0 STARLINK-5146,1 54073U 22136Y   23017.56828898 -.00004977  00000-0 -29504-3 0  9992,2 54073  53.2170  89.0307 0001018 124.2679 235.8410 15.08817599 14211,6917.9490000000005,95.439,540.518,539.11,0.0
54073.0,STARLINK-5146,PAYLOAD,2023-01-17 23:10:39,15.08821395,0.000179,53.2154,87.249,106.9145,253.2044,-0.0001648,-2.909e-05,0.0,0 STARLINK-5146,1 54073U 22136Y   23017.96573257 -.00002909  00000-0 -16480-3 0  9994,2 54073  53.2154  87.2490 0001790 106.9145 253.2044 15.08821395 14270,6917.937,95.439,541.0409999999999,538.564,0.0
54073.0,STARLINK-5146,PAYLOAD,2023-01-18 08:42:57,15.08861042,0.0001121,53.2169,85.4627,127.4008,232.7086,0.0014847,0.00023434,0.0,0 STARLINK-5146,1 54073U 22136Y   23018.36316905  .00023434  00000-0  14847-2 0  9992,2 54073  53.2169  85.4627 0001121 127.4008 232.7086 15.08861042 14330,6917.816,95.436,540.457,538.906,0.0
54073.0,STARLINK-5146,PAYLOAD,2023-01-18 13:29:06,15.08889039,0.0001071,53.2165,84.5709,126.0968,234.0123,0.0028074,0.00044736,0.0,0 STARLINK-5146,1 54073U 22136Y   23018.56188570  .00044736  00000-0  28074-2 0  9994,2 54073  53.2165  84.5709 0001071 126.0968 234.0123 15.08889039 13883,6917.731,95.434,540.336,538.855,0.0
54073.0,STARLINK-5146,PAYLOAD,2023-01-18 21:26:02,15.08869099,0.0001545,53.2168,83.0844,102.3905,257.726,0.0013867,0.00021868,0.0,0 STARLINK-5146,1 54073U 22136Y   23018.89308676  .00021868  00000-0  13867-2 0  9996,2 54073  53.2168  83.0844 0001545 102.3905 257.7260 15.08869099 14412,6917.791,95.436,540.725,538.5880000000001,0.0
54073.0,STARLINK-5146,PAYLOAD,2023-01-19 02:12:11,15.08857945,0.0001097,53.2164,82.1922,114.563,245.5476,0.00059892,9.261e-05,0.0,0 STARLINK-5146,1 54073U 22136Y   23019.09180399  .00009261  00000-0  59892-3 0  9991,2 54073  53.2164  82.1922 0001097 114.5630 245.5476 15.08857945 14441,6917.826,95.436,540.4490000000001,538.932,0.0
54073.0,STARLINK-5146,PAYLOAD,2023-01-19 10:09:07,15.08863155,0.0001132,53.2165,80.7054,110.5631,249.5482,0.0016576,0.00026208,0.0,0 STARLINK-5146,1 54073U 22136Y   23019.42300239  .00026208  00000-0  16576-2 0  9996,2 54073  53.2165  80.7054 0001132 110.5631 249.5482 15.08863155 14013,6917.81,95.436,540.4580000000001,538.8919999999999,0.0
54073.0,STARLINK-5146,PAYLOAD,2023-01-19 11:44:30,15.08870548,0.0001109,53.2166,80.4082,107.2405,252.8709,0.0023628,0.00037548,0.0,0 STARLINK-5146,1 54073U 22136Y   23019.48924173  .00037548  00000-0  23628-2 0  9996,2 54073  53.2166  80.4082 0001109 107.2405 252.8709 15.08870548 14505,6917.786999999999,95.436,540.419,538.885,0.0
54073.0,STARLINK-5146,PAYLOAD,2023-01-19 21:16:49,15.08861089,0.0001436,53.2166,78.6243,85.5448,274.5708,0.0016621,0.00026279,0.0,0 STARLINK-5146,1 54073U 22136Y   23019.88668426  .00026279  00000-0  16621-2 0  9990,2 54073  53.2166  78.6243 0001436  85.5448 274.5708 15.08861089 14567,6917.816,95.436,540.674,538.688,0.0
54073.0,STARLINK-5146,PAYLOAD,2023-01-20 09:59:54,15.08854719,0.0001069,53.2168,76.2461,81.8742,278.2371,0.0020188,0.00032,0.0,0 STARLINK-5146,1 54073U 22136Y   23020.41660358  .00032000  00000-0  20188-2 0  9999,2 54073  53.2168  76.2461 0001069  81.8742 278.2371 15.08854719 14641,6917.835,95.437,540.44,538.961,0.0
54073.0,STARLINK-5146,PAYLOAD,2023-01-20 21:07:36,15.0885512,0.0001631999999999,53.2183,74.1661,67.495,292.6214,0.0013179,0.00020757,0.0,0 STARLINK-5146,1 54073U 22136Y   23020.88028457  .00020757  00000-0  13179-2 0  9996,2 54073  53.2183  74.1661 0001632  67.4950 292.6214 15.08855120 14715,6917.834,95.437,540.828,538.57,0.0
54073.0,STARLINK-5146,PAYLOAD,2023-01-21 09:50:41,15.08853159,0.0001533,53.219,71.7841,103.7456,256.3706,0.00055111,8.497e-05,0.0,0 STARLINK-5146,1 54073U 22136Y   23021.41020201  .00008497  00000-0  55111-3 0  9995,2 54073  53.2190  71.7841 0001533 103.7456 256.3706 15.08853159 14792,6917.84,95.437,540.766,538.645,0.0
54073.0,STARLINK-5146,PAYLOAD,2023-01-22 12:52:14,15.08861378,0.0001042,53.2178,66.729,90.9852,269.126,0.00088346,0.00013808,0.0,0 STARLINK-5146,1 54073U 22136Y   23022.53627801  .00013808  00000-0  88346-3 0  9996,2 54073  53.2178  66.7290 0001042  90.9852 269.1260 15.08861378 14960,6917.815,95.436,540.401,538.9590000000001,0.0
54073.0,STARLINK-5146,PAYLOAD,2023-01-23 03:10:43,15.08828275,8.31e-05,53.218,64.0536,109.4778,250.6304,0.0001388,1.921e-05,0.0,0 STARLINK-5146,1 54073U 22136Y   23023.13244462  .00001921  00000-0  13880-3 0  9995,2 54073  53.2180  64.0536 0000831 109.4778 250.6304 15.08828275 15059,6917.916,95.438,540.356,539.206,0.0
54073.0,STARLINK-5146,PAYLOAD,2023-01-23 09:32:15,15.08838937,8.499999999999999e-05,53.2178,62.8642,112.7904,247.3178,0.00082707,0.00012899,0.0,0 STARLINK-5146,1 54073U 22136Y   23023.39740532  .00012899  00000-0  82707-3 0  9992,2 54073  53.2178  62.8642 0000850 112.7904 247.3178 15.08838937 15091,6917.884,95.438,540.337,539.161,0.0
54073.0,STARLINK-5146,PAYLOAD,2023-01-24 06:12:16,15.08835807,9.42e-05,53.2168,58.9971,104.4169,255.6928,9.1973e-05,1.176e-05,0.0,0 STARLINK-5146,1 54073U 22136Y   23024.25852841  .00001176  00000-0  91973-4 0  9997,2 54073  53.2168  58.9971 0000942 104.4169 255.6928 15.08835807 15227,6917.893,95.438,540.41,539.107,0.0
54073.0,STARLINK-5146,PAYLOAD,2023-01-24 23:41:31,15.088301800000002,0.0001105,53.2179,55.7277,105.9685,254.1429,8.9561e-05,1.137e-05,0.0,0 STARLINK-5146,1 54073U 22136Y   23024.98717471  .00001137  00000-0  89561-4 0  9993,2 54073  53.2179  55.7277 0001105 105.9685 254.1429 15.08830180 15335,6917.91,95.438,540.54,539.011,0.0
54073.0,STARLINK-5146,PAYLOAD,2023-01-25 09:13:50,15.08839902,0.0001008,53.2175,53.945,75.1458,284.9646,0.00019142,2.7600000000000003e-05,0.0,0 STARLINK-5146,1 54073U 22136Y   23025.38461422  .00002760  00000-0  19142-3 0  9990,2 54073  53.2175  53.9450 0001008  75.1458 284.9646 15.08839902 14918,6917.880999999999,95.438,540.443,539.048,0.0
54073.0,STARLINK-5146,PAYLOAD,2023-01-26 09:04:37,15.0884734,0.0001167,53.2171,49.4822,88.3414,271.7712,0.00025399,3.757e-05,0.0,0 STARLINK-5146,1 54073U 22136Y   23026.37821033  .00003757  00000-0  25399-3 0  9996,2 54073  53.2171  49.4822 0001167  88.3414 271.7712 15.08847340 15061,6917.858,95.437,540.53,538.9159999999999,0.0
54073.0,STARLINK-5146,PAYLOAD,2023-01-27 00:58:29,15.08840377,0.0001424,53.217,46.5107,73.4067,286.7081,0.00013971,1.936e-05,0.0,0 STARLINK-5146,1 54073U 22136Y   23027.04061534  .00001936  00000-0  13971-3 0  9993,2 54073  53.2170  46.5107 0001424  73.4067 286.7081 15.08840377 15641,6917.879,95.438,540.729,538.759,0.0
54073.0,STARLINK-5146,PAYLOAD,2023-01-27 07:20:01,15.08842986,0.0001318,53.2186,45.3183,119.0487,241.0638,0.00012558,1.711e-05,0.0,0 STARLINK-5146,1 54073U 22136Y   23027.30557115  .00001711  00000-0  12558-3 0  9998,2 54073  53.2186  45.3183 0001318 119.0487 241.0638 15.08842986 15206,6917.871,95.437,540.648,538.8240000000001,0.0
54073.0,STARLINK-5146,PAYLOAD,2023-01-28 05:35:25,15.08841889,0.0001124,53.218,41.1555,94.1738,265.9382,6.5922e-05,7.62e-06,0.0,0 STARLINK-5146,1 54073U 22136Y   23028.23293378  .00000762  00000-0  65922-4 0  9998,2 54073  53.2180  41.1555 0001124  94.1738 265.9382 15.08841889 15824,6917.875,95.437,540.5169999999999,538.962,0.0
54073.0,STARLINK-5146,PAYLOAD,2023-01-28 07:10:48,15.08842187,0.0001151,53.2173,40.8579,95.2538,264.8586,8.1401e-05,1.008e-05,0.0,0 STARLINK-5146,1 54073U 22136Y   23028.29917264  .00001008  00000-0  81401-4 0  9995,2 54073  53.2173  40.8579 0001151  95.2538 264.8586 15.08842187 15352,6917.874,95.437,540.535,538.942,0.0
